NORAD_CAT_ID,OBJECT_NAME,OBJECT_TYPE,EPOCH,MEAN_MOTION,ECCENTRICITY,INCLINATION,RA_OF_ASC_NODE,ARG_OF_PERICENTER,MEAN_ANOMALY,BSTAR,MEAN_MOTION_DOT,MEAN_MOTION_DDOT,TLE_LINE0,TLE_LINE1,TLE_LINE2,SEMIMAJOR_AXIS,PERIOD,APOGEE,PERIGEE,DECAYED
55925.0,STARLINK-5922,PAYLOAD,2023-10-16 13:31:58,14.98338941,0.0002832,69.9997,350.8886,270.2129,89.8705,1.8327e-05,1.26e-06,0.0,0 STARLINK-5922,1 55925U 23037M   23289.56387580  .00000126  00000-0  18327-4 0  9991,2 55925  69.9997 350.8886 0002832 270.2129  89.8705 14.98338941 32409,6950.165,96.106,573.999,570.062,0.0
55925.0,STARLINK-5922,PAYLOAD,2023-10-17 11:57:52,14.98326664,0.0002625,69.9995,348.5309,269.9035,90.1823,0.00017434,1.988e-05,0.0,0 STARLINK-5922,1 55925U 23037M   23290.49851983  .00001988  00000-0  17434-3 0  9992,2 55925  69.9995 348.5309 0002625 269.9035  90.1823 14.98326664 32889,6950.203,96.107,573.893,570.244,0.0
55925.0,STARLINK-5922,PAYLOAD,2023-10-17 21:34:41,14.98322856,0.0002367,70.0001,347.52,274.1421,85.9467,0.00011601,1.291e-05,0.0,0 STARLINK-5922,1 55925U 23037M   23290.89908579  .00001291  00000-0  11601-3 0  9997,2 55925  70.0001 347.5200 0002367 274.1421  85.9467 14.98322856 32604,6950.215,96.107,573.725,570.435,0.0
55925.0,STARLINK-5922,PAYLOAD,2023-10-18 11:59:53,14.98332428,0.0002712,69.9997,346.0063,269.1129,90.9719,-3.3895e-05,-4.97e-06,0.0,0 STARLINK-5922,1 55925U 23037M   23291.49992159 -.00000497  00000-0 -33895-4 0  9990,2 55925  69.9997 346.0063 0002712 269.1129  90.9719 14.98332428 33039,6950.185,96.107,573.935,570.165,0.0
55925.0,STARLINK-5922,PAYLOAD,2023-10-18 21:36:41,14.98335451,0.0002679,69.9998,344.9964,275.5932,84.4922,-3.4645e-05,-5.06e-06,0.0,0 STARLINK-5922,1 55925U 23037M   23291.90047906 -.00000506  00000-0 -34645-4 0  9992,2 55925  69.9998 344.9964 0002679 275.5932  84.4922 14.98335451 32753,6950.176,96.107,573.903,570.179,0.0
55925.0,STARLINK-5922,PAYLOAD,2023-10-19 12:01:53,14.98340512,0.000261,69.9995,343.4812,266.5532,93.5328,6.0089e-05,6.24e-06,0.0,0 STARLINK-5922,1 55925U 23037M   23292.50131033  .00000624  00000-0  60089-4 0  9994,2 55925  69.9995 343.4812 0002610 266.5532  93.5328 14.98340512 33180,6950.16,96.106,573.839,570.211,0.0
55925.0,STARLINK-5922,PAYLOAD,2023-10-20 04:03:14,14.98329671,0.0002708,69.9996,341.7989,275.8543,84.2307,4.0142e-05,3.86e-06,0.0,0 STARLINK-5922,1 55925U 23037M   23293.16891625  .00000386  00000-0  40142-4 0  9990,2 55925  69.9996 341.7989 0002708 275.8543  84.2307 14.98329671 33288,6950.194,96.107,573.941,570.177,0.0
55925.0,STARLINK-5922,PAYLOAD,2023-10-20 12:03:55,14.98314854,0.0002387,70.0004,340.9574,265.5932,94.4955,5.5875e-05,5.74e-06,0.0,0 STARLINK-5922,1 55925U 23037M   23293.50272536  .00000574  00000-0  55875-4 0  9990,2 55925  70.0004 340.9574 0002387 265.5932  94.4955 14.98314854 33338,6950.24,96.108,573.764,570.446,0.0
55925.0,STARLINK-5922,PAYLOAD,2023-10-20 13:40:03,14.98310585,0.0002351,70.0003,340.7886,266.9066,93.1824,0.00014907,1.685e-05,0.0,0 STARLINK-5922,1 55925U 23037M   23293.56948670  .00001685  00000-0  14907-3 0  9999,2 55925  70.0003 340.7886 0002351 266.9066  93.1824 14.98310585 33007,6950.253,96.108,573.752,570.484,0.0
55925.0,STARLINK-5922,PAYLOAD,2023-10-21 02:29:07,14.98329469,0.0002708,69.9993,339.4418,271.8288,88.2561,-8.3851e-05,-1.093e-05,0.0,0 STARLINK-5922,1 55925U 23037M   23294.10356122 -.00001093  00000-0 -83851-4 0  9995,2 55925  69.9993 339.4418 0002708 271.8288  88.2561 14.98329469 33425,6950.195,96.107,573.942,570.177,0.0
55925.0,STARLINK-5922,PAYLOAD,2023-10-21 12:05:55,14.9833103,0.0002662,69.9993,338.4321,269.5543,90.5311,-6.19e-05,-8.31e-06,0.0,0 STARLINK-5922,1 55925U 23037M   23294.50411945 -.00000831  00000-0 -61900-4 0  9994,2 55925  69.9993 338.4321 0002662 269.5543  90.5311 14.98331030 33149,6950.19,96.107,573.905,570.205,0.0
55925.0,STARLINK-5922,PAYLOAD,2023-10-21 20:06:35,14.98337917,0.000264,69.9996,337.5907,278.309,81.7769,-0.00011439,-1.458e-05,0.0,0 STARLINK-5922,1 55925U 23037M   23294.83791637 -.00001458  00000-0 -11439-3 0  9996,2 55925  69.9996 337.5907 0002640 278.3090  81.7769 14.98337917 33197,6950.168,96.106,573.868,570.199,0.0
55925.0,STARLINK-5922,PAYLOAD,2023-10-22 04:07:16,14.98324793,0.0002667,70.0003,336.75,267.508,92.5774,9.9977e-05,1.1e-05,0.0,0 STARLINK-5922,1 55925U 23037M   23295.17171825  .00001100  00000-0  99977-4 0  9991,2 55925  70.0003 336.7500 0002667 267.5080  92.5774 14.98324793 33584,6950.209,96.107,573.928,570.22,0.0
55925.0,STARLINK-5922,PAYLOAD,2023-10-22 12:07:56,14.98328218,0.0002532,69.9991,335.907,265.4707,94.6162,0.00010715,1.186e-05,0.0,0 STARLINK-5922,1 55925U 23037M   23295.50551618  .00001186  00000-0  10715-3 0  9996,2 55925  69.9991 335.9070 0002532 265.4707  94.6162 14.98328218 33292,6950.198,96.107,573.823,570.304,0.0
55925.0,STARLINK-5922,PAYLOAD,2023-10-23 04:09:17,14.98327974,0.0002688,69.9993,334.2236,265.7471,94.3381,3.3813e-05,3.1e-06,0.0,0 STARLINK-5922,1 55925U 23037M   23296.17311903  .00000310  00000-0  33813-4 0  9994,2 55925  69.9993 334.2236 0002688 265.7471  94.3381 14.98327974 33730,6950.199,96.107,573.932,570.196,0.0
55925.0,STARLINK-5922,PAYLOAD,2023-10-23 20:10:40,14.98308789,0.0002506,70.0006,332.54,282.8597,77.2281,-0.00036357,-4.426e-05,0.0,0 STARLINK-5922,1 55925U 23037M   23296.84074189 -.00004426  00000-0 -36357-3 0  9999,2 55925  70.0006 332.5400 0002506 282.8597  77.2281 14.98308789 33833,6950.258,96.108,573.865,570.382,0.0
55925.0,STARLINK-5922,PAYLOAD,2023-10-24 04:11:19,14.98301109,0.0002226,70.0003,331.6984,250.5025,109.5893,0.00040978,4.796e-05,0.0,0 STARLINK-5922,1 55925U 23037M   23297.17452732  .00004796  00000-0  40978-3 0  9992,2 55925  70.0003 331.6984 0002226 250.5025 109.5893 14.98301109 33886,6950.282,96.109,573.694,570.6,0.0
55925.0,STARLINK-5922,PAYLOAD,2023-10-24 12:11:59,14.98299666,0.0002676,70.0002,330.8565,254.2103,105.8761,0.00021712,2.497e-05,0.0,0 STARLINK-5922,1 55925U 23037M   23297.50833206  .00002497  00000-0  21712-3 0  9999,2 55925  70.0002 330.8565 0002676 254.2103 105.8761 14.98299666 33593,6950.287,96.109,574.012,570.292,0.0
55925.0,STARLINK-5922,PAYLOAD,2023-10-25 12:14:02,14.98268864,0.0002231,70.0006,328.3314,284.1102,75.9809,0.0002125,2.439e-05,0.0,0 STARLINK-5922,1 55925U 23037M   23298.50975216  .00002439  00000-0  21250-3 0  9991,2 55925  70.0006 328.3314 0002231 284.1102  75.9809 14.98268864 34080,6950.382,96.111,573.798,570.696,0.0
55925.0,STARLINK-5922,PAYLOAD,2023-10-26 04:15:20,14.98320539,0.0002694,69.9999,326.6486,267.5744,92.5107,-6.8504e-05,-9.1e-06,0.0,0 STARLINK-5922,1 55925U 23037M   23299.17732538 -.00000910  00000-0 -68504-4 0  9991,2 55925  69.9999 326.6486 0002694 267.5744  92.5107 14.98320539 34184,6950.222,96.108,573.96,570.215,0.0
55925.0,STARLINK-5922,PAYLOAD,2023-10-26 12:16:04,14.98277497,0.0002979,69.9999,325.8064,273.155,86.9268,-0.00054935,-6.633e-05,0.0,0 STARLINK-5922,1 55925U 23037M   23299.51116400 -.00006633  00000-0 -54935-3 0  9993,2 55925  69.9999 325.8064 0002979 273.1550  86.9268 14.98277497 34236,6950.355,96.11,574.291,570.15,0.0
55925.0,STARLINK-5922,PAYLOAD,2023-10-26 18:40:31,14.98372498,0.0003207,70.0003,325.1321,274.6774,85.4019,-0.00075196,-9.064e-05,0.0,0 STARLINK-5922,1 55925U 23037M   23299.77814803 -.00009064  00000-0 -75196-3 0  9996,2 55925  70.0003 325.1321 0003207 274.6774  85.4019 14.98372498 33934,6950.061,96.104,574.155,569.698,0.0
55925.0,STARLINK-5922,PAYLOAD,2023-10-27 04:17:21,14.98332582,0.000312,69.9978,324.122,270.682,89.3982,-2.628e-05,-4.07e-06,0.0,0 STARLINK-5922,1 55925U 23037M   23300.17871845 -.00000407  00000-0 -26280-4 0  9995,2 55925  69.9978 324.1220 0003120 270.6820  89.3982 14.98332582 34338,6950.185,96.107,574.218,569.881,0.0
55925.0,STARLINK-5922,PAYLOAD,2023-10-27 12:18:00,14.98339438,0.0002878,69.9979,323.2802,267.509,92.5739,5.3556e-05,5.46e-06,0.0,0 STARLINK-5922,1 55925U 23037M   23300.51251077  .00000546  00000-0  53556-4 0  9990,2 55925  69.9979 323.2802 0002878 267.5090  92.5739 14.98339438 34386,6950.164,96.106,574.029,570.028,0.0
55925.0,STARLINK-5922,PAYLOAD,2023-10-27 18:42:34,14.98317558,0.0002745,69.9988,322.6057,289.6675,70.4188,0.00028694,3.331e-05,0.0,0 STARLINK-5922,1 55925U 23037M   23300.77956144  .00003331  00000-0  28694-3 0  9994,2 55925  69.9988 322.6057 0002745 289.6675  70.4188 14.98317558 34425,6950.231,96.108,574.004,570.189,0.0
55925.0,STARLINK-5922,PAYLOAD,2023-10-28 10:43:54,14.98325315,0.0002836,69.9984,320.9245,271.1166,88.9668,7.785e-05,8.36e-06,0.0,0 STARLINK-5922,1 55925U 23037M   23301.44715941  .00000836  00000-0  77850-4 0  9993,2 55925  69.9984 320.9245 0002836 271.1166  88.9668 14.98325315 34183,6950.207,96.107,574.043,570.101,0.0
55925.0,STARLINK-5922,PAYLOAD,2023-10-28 18:44:34,14.98330281,0.0003002,69.9979,320.0815,269.7193,90.3622,8.3756e-05,9.06e-06,0.0,0 STARLINK-5922,1 55925U 23037M   23301.78095589  .00000906  00000-0  83756-4 0  9999,2 55925  69.9979 320.0815 0003002 269.7193  90.3622 14.98330281 34578,6950.192,96.107,574.143,569.971,0.0
55925.0,STARLINK-5922,PAYLOAD,2023-10-29 10:45:54,14.98341149,0.0002777,69.9981,318.3988,267.7259,92.3582,5.8295e-05,6.03e-06,0.0,0 STARLINK-5922,1 55925U 23037M   23302.44854745  .00000603  00000-0  58295-4 0  9994,2 55925  69.9981 318.3988 0002777 267.7259  92.3582 14.98341149 34674,6950.158,96.106,573.953,570.093,0.0
55925.0,STARLINK-5922,PAYLOAD,2023-10-29 18:46:35,14.98330709,0.0001987,70.0002,317.5564,285.4142,74.6797,-4.6881e-05,-6.52e-06,0.0,0 STARLINK-5922,1 55925U 23037M   23302.78235899 -.00000652  00000-0 -46881-4 0  9998,2 55925  70.0002 317.5564 0001987 285.4142  74.6797 14.98330709 34729,6950.191,96.107,573.437,570.675,0.0
55925.0,STARLINK-5922,PAYLOAD,2023-10-30 18:48:37,14.98293995,0.0002531,69.9987,315.0316,275.2311,84.8559,0.00052732,6.199e-05,0.0,0 STARLINK-5922,1 55925U 23037M   23303.78376795  .00006199  00000-0  52732-3 0  9991,2 55925  69.9987 315.0316 0002531 275.2311  84.8559 14.98293995 34877,6950.304,96.109,573.928,570.41,0.0
